IRIDIUM 26              
1 24903U 97043A   25102.03958559  .00000733  00000+0  24032-3 0  9991
2 24903  86.3952 138.4140 0002156  89.3026 270.8418 14.37076999447714
IRIDIUM 22              
1 24907U 97043E   25102.05432562  .00000602  00000+0  20108-3 0  9993
2 24907  86.3963 141.8874 0002284  93.4016 266.7442 14.35899519447270
DUMMY MASS 1            
1 24925U 97048A   25101.92878331  .00000830  00000+0  89685-4 0  9990
2 24925  86.3392 165.9545 0007837  38.5378 321.6405 14.86920466495521
DUMMY MASS 2            
1 24926U 97048B   25102.14914897  .00000829  00000+0  90204-4 0  9991
2 24926  86.3395 167.4461 0008951  45.8681 314.3278 14.86673691495336
IRIDIUM 33              
1 24946U 97051C   25101.94047457  .00000525  00000+0  17829-3 0  9997
2 24946  86.3928 170.9226 0005766 302.7296  57.3343 14.34846446443249
IRIDIUM 28              
1 24948U 97051E   25102.18630972  .00000750  00000+0  24485-3 0  9992
2 24948  86.4017 169.1209 0001879  88.4083 271.7330 14.37328829444438
IRIDIUM 36              
1 24967U 97056C   25102.22935848  .00000928  00000+0  30334-3 0  9990
2 24967  86.4032 200.6727 0001995 100.1138 260.0284 14.37542747442742
